#dP2023 11  6 12  0  0.00000000      96 __u+U IGS20 EXT  IAC
## 2287 129600.00000000   900.00000000 60254 0.5000000000000
+  118   C06C07C08C09C10C11C12C13C14C16C19C20C21C22C23C24C25
+        C26C27C28C29C30C32C33C34C35C36C37C38C39C40C41C42C43
+        C44C45C46E02E03E04E05E07E08E09E10E11E12E13E15E19E21
+        E24E25E26E27E30E31E33E34E36G01G02G03G04G05G06G07G08
+        G09G10G11G12G13G14G15G16G17G18G19G20G21G22G23G24G25
+        G26G27G28G29G30G31G32J02J03J04R01R02R03R04R05R07R08
+        R09R11R12R13R14R15R16R17R18R19R20R21R22R24R25R26  0
++        10  9  9  9  8  8  8  7 10  8  8  7  7  6 10  9  8
++         9  8 10  9  8 10  9  8  9  8  9 10 10 10  9  9  9
++         7  9  8  7  7  8  7  7  6  8  7  7  7  8  8  7  8
++         8  9  7  8  8  8  8  8  8  7  0  7  6  7  5  0  7
++         6  6  7  8  7  8  7  7  8  7  8  7  6  8  7  6  8
++         7  8  7  8  7  6  6 10  9 10  9  7  8  6  7 10  8
++         7  8  9  8  9 10  9  7  8  9 10  7  7  7  7  9  0
%c M  cc GPS ccc cccc cccc cccc cccc ccccc ccccc ccccc ccccc
%c cc cc ccc ccc cccc cccc cccc cccc ccccc ccccc ccccc ccccc
%f  0.0000000  0.000000000  0.00000000000  0.000000000000000
%f  0.0000000  0.000000000  0.00000000000  0.000000000000000
%i    0    0    0    0      0      0      0      0         0
%i    0    0    0    0      0      0      0      0         0
/* IAC                                ULTRA-RAPID PREDICTION
/* S/V CLOCKS ARE ALIGNED TO GNSS TIME                      
/* G:C1WC2W R:C1PC2P E:C1XC5X C:C2IC6I J:C1CC2S             
/* PCV:IGS20_2280 OL/AL:FES2004  NONE     YN ORB:CoN CLK:CoN
*  2023 11 07 10 15  0.00000000
PC06 -17661.241064  29460.224286  24285.972062     12.024581
PC07  -6902.237970  39581.440783  13204.811906   -280.151571
PC08  -2437.114241  21537.917817 -36148.534349    254.319077
PC09  -8873.129840  28253.917098  30216.395728    -57.773200
PC10   -378.666133  42036.816709   6305.749567     -8.359918
PC11  22197.192038  -6947.387012 -15327.065425    243.558460
PC12  11499.689852  10332.059119 -23185.779542    868.035538
PC13   3804.435840  24878.019185 -33610.054970    379.087025
PC14  16411.274862   1795.620720  22512.181874    736.232281
PC16 -21564.224848  29035.640406  21653.011369   -163.418999
PC19 -13426.099778   9137.784403 -22679.514071   -974.196969
PC20 -16722.351365 -10543.618588 -19684.829996    137.859915
PC21  10122.891833  25634.054669   4442.629111   -969.171257
PC22  -2267.270158  24702.749703 -12810.962148   -234.996389
PC23   8303.804588 -14495.483847 -22350.858786   -826.696368
PC24  26080.605411   9303.934039   3316.006979    572.176783
PC25  23647.585194  -4770.764904 -14019.563189    250.183452
PC26  13907.075983  16410.145738  17740.290934   -202.747857
PC27  -4227.806157 -17088.499871  21639.338692    224.607962
PC28  11495.356396 -22691.218624  11479.720373    169.373054
PC29 -21864.312282  15540.762019   7697.797383    198.106363
PC30 -18285.305752  -1970.906328  20980.180073     -7.886841
PC32 -10249.264014 -25592.043822  -4305.084593   -533.388753
PC33  13457.671637  -9079.604941  22691.961650   -946.664749
PC34  19101.209732    559.775627 -20349.597326    298.068226
PC35 -10495.282497  23117.725213 -11553.874525    508.275026
PC36 -24251.177311   3610.084759  13359.003795   -145.085574
PC37 -12865.793292 -16847.466059 -18156.041749   -878.192593
PC38 -11638.213852  19564.938439 -35464.461178    116.142752
PC39 -24158.126927  29829.043273  17212.679356     -5.568000
PC40 -11657.932632  37144.262339  16551.173915    -43.057098
PC41   2752.422055 -24311.387226  13463.027801   -871.404488
PC42  16685.567604  12118.638199  18845.664705   -504.422434
PC43  22077.971321 -14827.107871  -8488.588582     47.234006
PC44   4838.159316  17118.875629 -21503.560212    285.364171
PC45  -7711.494178  14572.952647  22513.107770    -43.771912
PC46 -26457.026749  -8669.099959  -2240.796210    -97.865806
PE02 -23421.450940 -13468.910684  12113.876798     76.413737
PE03 -16452.967350  -4327.937002 -24233.639449    -71.797106
PE04  17593.809308 -16994.075016  16668.840787   -251.943427
PE05  -5784.924660 -23008.832338 -17706.585709     35.048161
PE07  -8648.188352  28310.103993    339.266136    -86.504964
PE08 -17606.001117  16531.192372 -17127.696342   -173.278517
PE09   8702.371702 -28285.888615   -216.480938   -219.031221
PE10  20793.197551 -14633.705862  15142.579003   -577.023726
PE11  10551.310712 -16846.965545  21928.884936   3181.147430
PE12  26874.286209 -10415.149574   6764.695800   -767.179393
PE13 -11330.392596  16738.346902 -21617.122845    -19.605438
PE15 -27079.622623  10163.693849  -6287.626981    -67.508332
PE19  15385.960102   7100.858174  24268.424415  -1265.082999
PE21  16543.968645  23893.826474   5603.152182   -562.934593
PE24    899.053006 -20754.898642 -21107.074978   -418.291267
PE25 -16306.663681 -23982.091281  -5944.744890     -3.696127
PE26  11557.876802  13300.975806 -23772.577212    273.859967
PE27   -336.379964  20972.843890  20884.121528   -193.850988
PE30 -17101.156283   5364.240144  23553.121050   -642.469930
PE31  16802.281457  -5741.577683 -23673.001050     -9.604669
PE33  26452.119050   2657.373526 -12993.538187      1.854566
PE34 -26758.927554  -2207.372770  12479.502846    -76.619477
PE36 -10804.382782 -13427.222222  24072.613431   -140.668183
PG01   2927.046183  14422.400870 -22452.439138    163.209788
PG02  -3858.665700  15860.112427 -20407.316432   -532.147253
PG03  10010.207559  22108.064796 -11062.510276    -30.193424
PG04      0.000000      0.000000      0.000000    206.180612
PG05   1906.947297 -17368.315829  19796.800074   -149.457958
PG06      0.000000      0.000000      0.000000    512.191782
PG07  20093.840986   7652.881596  16370.183010     19.835442
PG08  -4519.071977  25662.042979  -3921.429063   -150.911053
PG09      0.000000      0.000000      0.000000    -10.097745
PG10 -20262.892903  -6460.030694 -15928.739089    -60.422294
PG11  20115.013110 -12040.146431  12453.875585   -449.595876
PG12  -6804.581677 -22629.001187 -12479.115719   -444.365872
PG13  13463.166573 -22470.092271   3418.173948    592.616314
PG14  20909.253778   9623.262795 -13379.270764    236.341210
PG15    502.858008 -26030.336671  -5091.399769     94.733444
PG16  -8776.124220  12778.993101  21192.772469   -426.272689
PG17  15499.098434     15.711850 -21150.407573    723.447136
PG18 -21214.519337  -6136.148427  14900.687406   -472.061828
PG19  17394.287929  -8490.227238 -18223.475361    395.584730
PG20  12743.559806  -9384.212097  21355.723085    402.868374
PG21  -6904.516674  16115.312949 -19142.518019    144.894223
PG22  18500.496968   3569.419797 -18155.064319     88.405136
PG23 -20557.253005 -16066.787369  -5462.007580     94.919684
PG24   1482.962989 -16690.192840 -20927.604427   -365.432046
PG25 -17168.016171 -20396.166842  -1937.606201    476.309110
PG26 -16280.886478   5244.800441  20266.825764    218.291814
PG27 -12780.976558  21389.363153   8308.066724    -66.518275
PG28 -25915.139971   5724.158492  -1111.269449    -40.901923
PG29  -7547.916248 -16404.282237  19397.973254   -610.234759
PG30  25608.786249    375.011112   7656.599758   -470.798049
PG31 -23645.091227   9948.144455   7468.946292   -225.499133
PG32 -16262.856064   4546.739195 -20265.886399   -582.778313
PJ02 -25325.415760  23361.917887  29495.692398     -0.109826
PJ03 -35407.337401  21175.216379  -4001.625400     -7.434552
PJ04 -19822.742393  28254.604171 -19160.565623     72.050461
PR01  10118.012668  15678.997556  17389.175829     69.301937
PR02  10580.578181  -3030.038513  23052.856269    -22.344778
PR03   5440.539815 -19883.102146  15109.459766     88.566865
PR04  -2375.636900 -25392.305250   -896.830941    210.070635
PR05  -8945.180152 -17335.679185 -16448.931268    121.858254
PR07  -5073.753776  20395.542475 -14379.361100     68.574096
PR08   2707.278936  25316.252403   1220.613124    -73.203278
PR09 -22046.477374  -2807.829713  12464.739826    151.892484
PR11   6987.076167  13737.718631  20339.721121   -211.449720
PR12  21585.152799  12609.248776   5057.245824     33.172182
PR13  22752.963991   4606.174895 -10580.758842    -41.026818
PR14   9679.929185  -7527.842997 -22358.441505     25.516682
PR15  -8208.652642 -14145.492534 -19555.661984     84.902460
PR16 -21555.264484 -12519.528433  -5326.525109     20.392295
PR17  17948.396017 -16482.859043   7473.988657     32.706744
PR18   5300.997591 -14577.329066  20285.351238    110.746321
PR19  -8762.903698  -6600.843967  23035.270482   -253.753407
PR20 -21638.667380   7797.103824  11007.740250   -103.110181
PR21 -17736.032225  16446.228485  -8145.932646    -51.520986
PR22  -4580.689774  14342.766604 -20557.204254     92.367023
PR24  21562.342452  -8851.471308 -10313.111690    -31.202656
PR25 -18635.024981  15787.955310  -7393.345411     -6.365888
PR26   2566.218006  25382.379857    562.691688    -17.719561
EOF
